COSMOS 2433 (720)       
1 32275U 07052A   23010.22584929 -.00000051  00000+0  00000+0 0  9995
2 32275  66.0668 357.8081 0005189 260.9504 228.8278  2.13104082118372
COSMOS 2432 (719)       
1 32276U 07052B   23010.23291057 -.00000051  00000+0  00000+0 0  9994
2 32276  66.0801 357.9124 0011656 316.5544 126.3583  2.13103339118374
COSMOS 2434 (721)       
1 32393U 07065A   23010.43781479  .00000064  00000+0  00000+0 0  9995
2 32393  64.3547 234.3682 0004326  72.1862 110.4870  2.13103146117089
COSMOS 2436 (723)       
1 32395U 07065C   23010.47598608  .00000064  00000+0  00000+0 0  9991
2 32395  64.3640 234.4260 0016863   6.3577 341.2861  2.13102855117012
COSMOS 2456 (730)       
1 36111U 09070A   23009.47708528  .00000007  00000+0  00000+0 0  9998
2 36111  64.4112 113.9777 0002379 305.7925  22.5057  2.13099038101726
COSMOS 2457 (733)       
1 36112U 09070B   23010.42502809  .00000013  00000+0  00000+0 0  9997
2 36112  64.3953 113.8161 0006155 160.1806 304.2698  2.13101230101754
COSMOS 2460 (732)       
1 36402U 10007C   23009.95627999 -.00000053  00000+0  00000+0 0  9990
2 36402  65.9350 356.5720 0002586 283.7882 166.7414  2.13106312100090
COSMOS 2476 (744)       
1 37867U 11064A   23010.18639904  .00000014  00000+0  00000+0 0  9992
2 37867  64.6969 115.3895 0021979 232.6692 187.0569  2.13101727 87097
COSMOS 2477 (745)       
1 37868U 11064B   23009.81286826  .00000011  00000+0  00000+0 0  9999
2 37868  64.7039 115.4692 0019091 232.8024  78.3690  2.13101511 87038
COSMOS 2475 (743)       
1 37869U 11064C   23010.40484097  .00000015  00000+0  00000+0 0  9991
2 37869  64.7110 115.4596 0023195 251.4047 112.1281  2.13101685 87062
COSMOS 2485 (747)       
1 39155U 13019A   23010.51575650  .00000016  00000+0  00000+0 0  9992
2 39155  64.8589 115.8516 0022289 228.1283 128.6623  2.13101768 75561
COSMOS 2492 (754)       
1 39620U 14012A   23008.27259786 -.00000062  00000+0  00000+0 0  9994
2 39620  65.8199 356.2815 0014746 314.8217 155.4104  2.13103170 68471
COSMOS 2500 (755)       
1 40001U 14032A   23010.41946291 -.00000051  00000+0  00000+0 0  9992
2 40001  65.7582 356.0549 0007374 223.5752 311.7287  2.13102406 66739
COSMOS 2501 (702K)      
1 40315U 14075A   23008.33591043  .00000069  00000+0  00000+0 0  9994
2 40315  63.6604 234.0036 0017191 205.9596 339.9096  2.13101356 63092
COSMOS 2514 (751)       
1 41330U 16008A   23009.95073653 -.00000054  00000+0  00000+0 0  9996
2 41330  65.5579 355.7100 0010965 226.0002 133.9147  2.13102770 53890
COSMOS 2516 (753)       
1 41554U 16032A   23010.54134053  .00000064  00000+0  00000+0 0  9990
2 41554  63.8866 234.2610 0013800 212.1090 147.8856  2.13106440 51515
COSMOS 2522 (752)       
1 42939U 17055A   23010.26785552  .00000064  00000+0  00000+0 0  9999
2 42939  64.1195 234.7266 0005690 242.1094 121.4732  2.13102072 41268
COSMOS 2527 (756)       
1 43508U 18053A   23010.23238188  .00000015  00000+0  00000+0 0  9992
2 43508  65.0212 115.9046 0008175 220.2285 148.1236  2.13102403 35555
COSMOS 2529 (757)       
1 43687U 18086A   23010.31854942  .00000063  00000+0  00000+0 0  9990
2 43687  64.3363 235.0964 0007693 272.3734  85.5785  2.13102104 32565
COSMOS 2534 (758)       
1 44299U 19030A   23009.33077292  .00000065  00000+0  00000+0 0  9997
2 44299  64.4070 235.0340 0010500 295.5360 158.9996  2.13101964 28198
COSMOS 2544 (759)       
1 44850U 19088A   23010.64390071  .00000018  00000+0  16595+1 0  9997
2 44850  65.0063 115.7397 0012002 251.6187 115.7271  2.13102179 23994
COSMOS 2545 (760)       
1 45358U 20018A   23010.59394351 -.00000052  00000+0  00000+0 0  9997
2 45358  64.8962 356.1275 0011513 254.4811 283.7718  2.13102629 21945
COSMOS 2547 (705K)      
1 46805U 20075A   23010.55290924  .00000065  00000+0  00000+0 0  9998
2 46805  64.6332 234.4781 0005594 244.3931 116.1167  2.13102963 17195
COSMOS 2557 (706K)      
1 52984U 22075A   23010.47201749 -.00000052  00000+0  10000-3 0  9995
2 52984  64.8047 358.3162 0014034 282.3068 253.1764  2.13101824  3988
COSMOS 2559 (707K)      
1 54031U 22130A   23010.42195888 -.00000053  00000+0  00000+0 0  9999
2 54031  64.7769 358.4543 0007222 236.2715 306.0790  2.13101227  1965
COSMOS 2564 (761)       
1 54377U 22161A   23010.61684603  .00000065  00000+0  00000+0 0  9997
2 54377  64.7736 234.4864 0006870 214.0070 328.0619  2.13102381   917
